{
    "links": {
        "self": "http://www.neowsapp.com/rest/v1/neo/3831859?api_key=iIulBulltgU6a56xZRHN4H3l9WmuAYTsLGpBGhQ2"
    },
    "id": "3831859",
    "neo_reference_id": "3831859",
    "name": "(2018 TD6)",
    "designation": "2018 TD6",
    "nasa_jpl_url": "http://ssd.jpl.nasa.gov/sbdb.cgi?sstr=3831859",
    "absolute_magnitude_h": 24.9,
    "estimated_diameter": {
        "kilometers": {
            "estimated_diameter_min": 0.0278326768,
            "estimated_diameter_max": 0.0622357573
        },
        "meters": {
            "estimated_diameter_min": 27.8326768072,
            "estimated_diameter_max": 62.2357573367
        },
        "miles": {
            "estimated_diameter_min": 0.0172944182,
            "estimated_diameter_max": 0.0386714948
        },
        "feet": {
            "estimated_diameter_min": 91.3145593761,
            "estimated_diameter_max": 204.1855621004
        }
    },
    "is_potentially_hazardous_asteroid": false,
    "close_approach_data": [
        {
            "close_approach_date": "2018-02-27",
            "close_approach_date_full": "2018-Feb-27 19:38",
            "epoch_date_close_approach": 1519760280000,
            "relative_velocity": {
                "kilometers_per_second": "7.2259009575",
                "kilometers_per_hour": "26013.2434468308",
                "miles_per_hour": "16163.6178517266"
            },
            "miss_distance": {
                "astronomical": "0.3822424323",
                "lunar": "148.6923061647",
                "kilometers": "57182653.695699201",
                "miles": "35531653.3818469338"
            },
            "orbiting_body": "Earth"
        },
        {
            "close_approach_date": "2018-09-21",
            "close_approach_date_full": "2018-Sep-21 21:20",
            "epoch_date_close_approach": 1537564800000,
            "relative_velocity": {
                "kilometers_per_second": "8.4909202429",
                "kilometers_per_hour": "30567.3128744507",
                "miles_per_hour": "18993.3394913497"
            },
            "miss_distance": {
                "astronomical": "0.0410204621",
                "lunar": "15.9569597569",
                "kilometers": "6136573.756575727",
                "miles": "3813090.1169979526"
            },
            "orbiting_body": "Earth"
        }
    ],
    "orbital_data": {
        "orbit_id": "2",
        "orbit_determination_date": "2018-10-21 07:09:26",
        "first_observation_date": "2018-10-10",
        "last_observation_date": "2018-10-17",
        "data_arc_in_days": 7,
        "observations_used": 13,
        "orbit_uncertainty": "8",
        "minimum_orbit_intersection": ".0117354",
        "jupiter_tisserand_invariant": "5.333",
        "epoch_osculation": "2458402.5",
        "eccentricity": ".2411545188393452",
        "semi_major_axis": "1.179107504584861",
        "inclination": "5.35874382542168",
        "ascending_node_longitude": "182.0471534126757",
        "orbital_period": "467.6581767159385",
        "perihelion_distance": ".894760401656838",
        "perihelion_argument": "107.9303696025919",
        "aphelion_distance": "1.463454607512884",
        "perihelion_time": "2458327.577518262960",
        "mean_anomaly": "57.67480345311613",
        "mean_motion": ".7697930196111348",
        "equinox": "J2000",
        "orbit_class": {
            "orbit_class_type": "APO",
            "orbit_class_description": "Near-Earth asteroid orbits which cross the Earth’s orbit similar to that of 1862 Apollo",
            "orbit_class_range": "a (semi-major axis) > 1.0 AU; q (perihelion) < 1.017 AU"
        }
    },
    "is_sentry_object": false
}